QIANFAN-33              
1 61566U 24185Q   25269.30525238  .00000666  00000+0  47255-3 0  9999
2 61566  88.9733  87.4453 0006165 191.1111 168.9931 13.96447469 58359
QIANFAN-34              
1 61567U 24185R   25269.30261495  .00000725  00000+0  46497-3 0  9995
2 61567  88.9715  87.1116 0004776 199.2038 160.8963 14.02200272 58506
QIANFAN-35              
1 61568U 24185S   25269.25972064  .00001668  00000+0  67017-3 0  9999
2 61568  88.9738  85.9775 0006965 162.6218 197.5217 14.27751733 59123
QIANFAN-36              
1 61569U 24185T   25269.23723872  .00000204  00000+0  27601-3 0  9999
2 61569  88.9719  89.1225 0004165 267.1645  92.9032 13.55556359 57425
QIANFAN-37              
1 62238U 24232B   25269.29872889  .00000131  00000+0  18382-3 0  9990
2 62238  88.9985  49.1356 0001407  79.3988 280.7322 13.50965069 88716
QIANFAN-38              
1 62239U 24232C   25269.32354794  .00000137  00000+0  19290-3 0  9990
2 62239  88.9991  49.0436 0016017  63.3123 296.9666 13.50968707 88777
QIANFAN-39              
1 62240U 24232D   25269.33936997  .00000783  00000+0  32659-3 0  9995
2 62240  88.9991  46.1474 0015054 339.3362  20.7221 14.25256856 90366
QIANFAN-40              
1 62241U 24232E   25269.35643146  .00000141  00000+0  19957-3 0  9993
2 62241  89.0021  48.6031 0015182  70.6649 289.6142 13.50973524 89141
